OBJECT_NAME,OBJECT_ID,EPOCH,MEAN_MOTION,ECCENTRICITY,INCLINATION,RA_OF_ASC_NODE,ARG_OF_PERICENTER,MEAN_ANOMALY,EPHEMERIS_TYPE,CLASSIFICATION_TYPE,NORAD_CAT_ID,ELEMENT_SET_NO,REV_AT_EPOCH,BSTAR,MEAN_MOTION_DOT,MEAN_MOTION_DDOT
WESTAR 3,1979-072A,2024-01-20T15:29:29.715648,0.99957958,.0001707,11.6710,327.1961,294.9570,236.1004,0,U,11484,999,13173,0,-.291E-5,0
SL-6 R/B(2),1979-077D,2024-01-20T04:13:43.254048,1.98964016,.7468484,62.7335,57.8837,52.3436,354.4388,0,U,11550,999,32256,.18373E-2,.1815E-4,0
OPS 1948,1979-086A,2024-01-20T14:42:50.498208,1.00149634,.1303416,5.6293,4.0443,70.5847,158.3172,0,U,11558,999,1740,0,-.134E-5,0
TITAN 3C TRANSTAGE R/B,1979-086C,2024-01-20T10:33:24.568416,0.99674985,.1342973,5.5294,4.3949,118.0183,256.3808,0,U,11560,999,1748,0,-.311E-5,0
EKRAN 4,1979-087A,2024-01-20T17:34:42.557664,1.00303513,.0002736,7.7676,294.2604,155.0350,26.0871,0,U,11561,999,12411,0,-.238E-5,0
SL-12 R/B(2),1974-017F,2024-01-20T05:57:46.441152,1.00999053,.0045293,2.9356,274.4086,52.3098,253.9666,0,U,11567,999,18379,0,.142E-5,0
SL-12 R/B(2),1975-123F,2024-01-20T14:32:12.206976,1.00512017,.0015674,4.8132,278.9527,188.6226,119.0008,0,U,11568,999,11316,0,-.74E-6,0
EKRAN 2 DEB,1977-092H,2024-01-20T04:05:42.470880,1.00340870,.000553,6.3922,285.8082,237.9997,130.3732,0,U,11581,999,9555,0,-.347E-5,0
TITAN 3C TRANSTAGE R/B,1979-098C,2024-01-20T15:25:31.580832,0.95319347,.0297291,12.1223,312.7828,54.1399,149.9818,0,U,11623,999,11426,0,-.217E-5,0
SATCOM 3,1979-101A,2024-01-20T10:52:26.724576,1.82525798,.4874009,7.4328,170.7477,298.7312,48.5513,0,U,11635,999,20793,0,-.142E-5,0
GORIZONT 3,1979-105A,2024-01-19T21:20:18.318624,1.00198374,.0012208,8.0698,296.7602,234.4750,333.7429,0,U,11648,999,11366,0,.22E-6,0
OPS 6393 (FLTSATCOM 3),1980-004A,2024-01-19T15:47:03.133824,1.00382742,.002357,8.0041,311.1133,220.9482,66.4785,0,U,11669,999,16103,0,-.25E-6,0
SL-12 R/B(2),1975-097F,2024-01-20T10:53:23.213760,1.00123734,.0024112,4.6348,277.4878,195.5756,133.1454,0,U,11676,999,11033,0,-.246E-5,0
RADUGA 6,1980-016A,2024-01-19T21:15:28.319616,1.00204970,.0001625,7.8713,295.7106,233.9233,330.7863,0,U,11708,999,11334,0,.49E-6,0
SL-6 R/B(2),1980-050B,2024-01-20T01:14:31.587072,1.99571903,.6842928,65.5732,79.6377,335.9072,3.4819,0,U,11847,999,31702,0,-.869E-5,0
COSMOS 1191,1980-057A,2024-01-16T04:29:24.867168,2.00863086,.6608953,65.6585,152.5294,30.2317,355.0171,0,U,11871,999,22572,0,-.418E-5,0
SL-6 R/B(2),1980-057D,2024-01-19T03:12:27.418752,1.99412256,.7150933,64.3938,63.9811,35.1736,355.8619,0,U,11888,999,31719,0,-.65E-6,0
MOLNIYA 3-13,1980-063A,2024-01-20T03:12:55.001088,2.00669780,.7295243,63.1667,57.6919,277.8396,12.2473,0,U,11896,999,31876,0,-.349E-5,0
SL-6 R/B(2),1980-063D,2024-01-19T07:54:06.496704,1.96858094,.7043986,62.9530,135.6284,277.0180,14.2823,0,U,11909,999,31230,0,.618E-5,0
SL-12 R/B(2),1978-118C,2024-01-20T14:36:11.579904,1.01605044,.3201012,11.4679,175.3162,324.7601,250.7860,0,U,11926,999,16263,0,-.148E-5,0
TITAN 3C TRANSTAGE R/B,1973-040B,2024-01-19T16:14:25.585728,0.99556596,.0030836,3.2236,267.6942,43.7495,316.7572,0,U,11940,999,1787,0,-.45E-6,0
GOES 4,1980-074A,2024-01-20T04:02:51.729792,0.99232833,.003165,9.8995,309.9576,87.1071,113.3004,0,U,11964,999,11871,0,-.241E-5,0
GOES 4 AKM,1980-074C,2024-01-20T03:59:06.167040,0.81534991,.1643996,18.3935,320.5945,245.2772,307.4202,0,U,11970,999,3135,0,-.208E-5,0
RADUGA 7,1980-081A,2024-01-20T03:15:38.984832,1.00160223,.0009679,8.0708,297.8423,285.6864,196.4193,0,U,12003,999,11449,0,-.43E-6,0
SBS 1,1980-091A,2024-01-20T13:46:12.069120,0.99827848,.0007064,11.5130,324.0584,168.2308,22.1318,0,U,12065,999,3770,0,.17E-6,0
SL-6 R/B(2),1980-095E,2024-01-19T20:14:21.783552,1.99094771,.62711,64.9077,215.4966,42.0966,351.9686,0,U,12086,999,31362,0,-.4E-5,0
OPS 5805,1980-100A,2024-01-14T22:05:30.785280,2.00343103,.6837128,63.9959,287.5112,274.2719,16.8656,0,U,12093,999,3439,0,.1247E-4,0
EKRAN 6,1980-104A,2024-01-19T21:22:42.666240,1.00247664,.0005678,8.3497,299.1365,56.9245,137.8967,0,U,12120,999,11859,0,.1E-5,0
SL-6 R/B(2),1981-009D,2024-01-18T23:44:33.973440,2.08577997,.7479278,61.9002,77.8047,272.6087,12.3972,0,U,12159,999,31645,.28685E-3,.37932E-3,.74515E-6
COSMOS 1247,1981-016A,2024-01-20T02:31:41.844288,2.02513977,.645831,67.5163,58.9387,3.4966,359.5786,0,U,12303,999,31737,0,-.666E-5,0
ESIAFI 1 (COMSTAR 4),1981-018A,2024-01-20T08:23:25.583424,1.00260135,.000262,10.3998,317.5045,76.1286,283.9761,0,U,12309,999,15863,0,-.58E-6,0
RADUGA 8,1981-027A,2024-01-20T07:48:40.899168,1.00396475,.0080565,8.4091,298.3267,246.0569,344.4325,0,U,12351,999,11372,0,-.265E-5,0
ATLAS CENTAUR R/B,1981-018B,2024-01-16T16:58:52.457376,2.22037877,.717866,20.3603,280.9875,239.3527,32.0222,0,U,12363,999,34781,.10776E-2,.34E-6,0
TITAN 3C TRANSTAGE R/B,1981-025C,2024-01-19T20:56:55.462560,1.01338415,.005413,8.6169,305.9538,303.5585,56.0299,0,U,12371,999,1813,0,-.88E-6,0
COSMOS 1261,1981-031A,2024-01-20T15:18:39.918528,2.00753113,.622504,68.3619,144.6113,12.4325,357.5386,0,U,12376,999,20985,0,-.358E-5,0
SL-6 R/B(2),1981-031D,2024-01-20T13:55:50.766816,2.03528988,.6403651,67.1164,134.8237,17.5816,5.7905,0,U,12384,999,31822,0,.265E-5,0
SL-12 R/B(2),1980-081F,2024-01-20T10:59:39.269760,0.99966457,.0003833,8.2887,298.7478,43.5175,248.4147,0,U,12447,999,15559,0,-.266E-5,0
SL-12 R/B(2),1980-104E,2024-01-20T15:21:25.008192,1.01337278,.0033884,7.6219,296.0967,174.4246,44.1097,0,U,12471,999,11105,0,.79E-6,0
GOES 5,1981-049A,2024-01-20T12:21:51.374880,1.00237410,.0001897,10.9351,321.8508,286.9071,279.5879,0,U,12472,999,11403,0,.95E-6,0
APPLE,1981-057B,2024-01-20T12:22:31.456704,1.00031152,.002494,9.0479,304.4927,203.6591,22.5390,0,U,12545,999,11359,0,.111E-5,0
EKRAN 7,1981-061A,2024-01-20T17:34:42.557664,1.00264880,.0003777,8.5987,301.1877,63.0457,119.0890,0,U,12564,999,12069,0,-.29E-5,0
RADUGA 9,1981-069A,2024-01-20T18:17:06.146880,1.00187240,.0002475,8.6535,301.6230,163.9129,0.9655,0,U,12618,999,11952,0,-.34E-6,0
COSMOS 1285,1981-071A,2024-01-17T03:40:13.774944,1.98067673,.6350426,68.1395,149.2836,13.4553,4.3073,0,U,12627,999,22903,0,-.401E-5,0
HIMAWARI-2 (GMS-2),1981-076A,2024-01-19T19:58:34.517280,0.99547160,.00096,9.8669,310.9734,303.3508,244.1666,0,U,12677,999,12346,0,.8E-7,0
SL-6 R/B(2),1981-071D,2024-01-16T00:19:14.975328,1.99242951,.6793694,65.7374,136.9655,28.0637,355.7894,0,U,12680,999,22715,0,.451E-5,0
COSMOS 1124 DEB,1979-077E,2024-01-20T10:42:16.454592,2.04172968,.7349176,62.9554,11.8512,46.3228,354.8143,0,U,12814,999,4465,.97824E-2,-.447E-5,0
COSMOS 1191 DEB,1980-057E,2024-01-16T05:26:37.787136,1.99778571,.7038729,64.3524,112.3263,37.2689,355.0836,0,U,12817,999,23156,0,-.753E-5,0
COSMOS 1191 DEB,1980-057F,2024-01-16T05:06:28.949184,2.00302367,.6391445,65.7135,178.2323,33.4382,353.9526,0,U,12834,999,22360,0,-.82E-6,0
SL-12 R/B(2),1981-061F,2024-01-20T03:11:19.542048,1.01013243,.0002293,8.0865,299.1896,73.4459,40.4189,0,U,12851,999,3884,0,-.126E-5,0
SBS 2,1981-096A,2024-01-20T07:22:27.586272,1.00155755,.0005741,11.6628,327.5297,216.3691,184.9107,0,U,12855,999,10981,0,-.312E-5,0
COSMOS 1261 DEB,1981-031E,2024-01-20T05:37:10.493472,2.00254170,.7047786,62.3655,215.0891,34.4618,355.5911,0,U,12892,999,24180,0,.778E-5,0
COSMOS 1261 DEB,1981-031F,2024-01-20T09:19:35.598144,2.01089747,.7055227,64.7116,90.0850,33.1490,355.8226,0,U,12893,999,29443,0,.491E-5,0
COSMOS 1261 DEB,1981-031G,2024-01-15T11:07:40.653408,2.00314848,.6029158,69.2490,142.7204,12.9926,16.8479,0,U,12894,999,30389,0,.565E-5,0
RADUGA 10,1981-102A,2024-01-19T21:20:18.318624,1.00281621,.0004553,8.7533,302.7123,205.2628,356.3505,0,U,12897,999,10852,0,.9E-7,0
COSMOS 1030 DEB,1978-083E,2024-01-20T12:44:54.651840,2.00321987,.7206266,62.7904,142.6171,47.6523,353.8966,0,U,12907,999,31689,0,.641E-5,0
COSMOS 1030 DEB,1978-083F,2024-01-18T10:04:30.641376,2.00031748,.6160427,67.4230,322.3093,356.6048,0.5030,0,U,12919,999,5096,0,.313E-5,0
TITAN 3C TRANSTAGE R/B,1981-107C,2024-01-20T00:46:16.244544,0.99590873,.1032492,5.2291,356.2571,111.3643,260.1298,0,U,12932,999,1746,0,.7E-7,0
SL-6 R/B(2),1981-108D,2024-01-20T04:50:06.804960,1.99114483,.6433195,67.1136,321.5085,359.7667,359.8809,0,U,12940,999,30704,0,-.866E-5,0
SATCOM 3R,1981-114A,2024-01-20T04:08:37.594176,1.00134726,.000359,13.1174,338.1890,296.8174,257.4020,0,U,12967,999,11926,0,-.116E-5,0
COSMOS 1247 DEB,1981-016F,2024-01-20T04:38:42.600768,2.02680210,.6402235,67.5584,68.0906,3.3212,359.6000,0,U,12984,999,31215,0,-.132E-5,0
COSMOS 1247 DEB,1981-016H,2023-12-25T04:00:20.870208,2.02536962,.6452319,67.1291,74.7353,6.4284,359.0217,0,U,12992,999,21345,0,-.883E-5,0
COSMOS 1285 DEB,1981-071E,2024-01-18T14:35:54.125376,1.97870319,.658768,66.7557,153.4440,23.0830,2.9436,0,U,12993,999,22077,0,-.169E-5,0
INTELSAT 503,1981-119A,2024-01-19T21:39:34.641792,0.99461415,.0039514,12.4772,333.0676,241.0891,302.6122,0,U,12994,999,11795,0,.38E-6,0
EKRAN 2 DEB,1977-092J,2024-01-20T10:55:28.149024,1.00040116,.0015695,6.5580,286.4240,281.0606,15.6067,0,U,12996,999,7571,0,-.259E-5,0
MOLNIYA 1-52,1981-123A,2024-01-20T12:58:04.753056,2.00369157,.7144666,61.4448,197.3754,262.5359,18.5966,0,U,13012,999,30832,-.2904E-2,.56E-5,0
SATCOM 4,1982-004A,2024-01-19T22:47:15.010656,0.99587220,.0040465,13.6741,341.8811,179.3968,180.6290,0,U,13035,999,11645,0,.43E-6,0
EKRAN 8,1982-009A,2024-01-20T14:46:06.731616,0.99929299,.002773,9.0858,304.1647,320.2963,337.1519,0,U,13056,999,10983,0,-.65E-6,0
WESTAR 4,1982-014A,2024-01-19T07:13:43.080384,0.99769043,.0003338,13.5504,341.2705,263.5489,272.4214,0,U,13069,999,3766,0,-.238E-5,0
MOLNIYA 1-53,1982-015A,2024-01-19T08:05:38.463072,2.00821052,.691861,62.6949,145.8451,283.2066,13.3153,0,U,13070,999,30691,-.33588E-2,-.748E-5,0
SL-6 R/B(2),1982-015D,2024-01-17T22:15:58.514112,1.98107201,.7065344,62.9241,209.0093,278.8772,13.5705,0,U,13075,999,30170,0,-.908E-5,0
COSMOS 1341,1982-016A,2024-01-20T08:37:29.741664,2.00658003,.6068758,69.7235,49.4010,339.1703,4.1785,0,U,13080,999,21711,0,.171E-5,0
